{"type": "FeatureCollection", "features": [{"type": "Feature", "properties": {"name": "Islamabad", "source": "OpenStreetMap relation 358002 via Nominatim lookup 2026-09-27 (ODbL)"}, "geometry": {"type": "Polygon", "coordinates": [[[72.8175952, 33.701649], [72.8406645, 33.670916], [72.8764218, 33.6224429], [72.8766408, 33.6227535], [72.8768881, 33.623081], [72.8773584, 33.6235908], [72.8780152, 33.6243707], [72.8793896, 33.6239622], [72.8797666, 33.6237866], [72.8801883, 33.6234963], [72.8805248, 33.6232093], [72.8806099, 33.6229527], [72.8806748, 33.6228042], [72.8808289, 33.6227029], [72.8809343, 33.6225949], [72.8810154, 33.6223012], [72.881064, 33.622183], [72.8813762, 33.6218623], [72.8814642, 33.6217763], [72.8814512, 33.621381], [72.8819779, 33.6198812], [72.885398, 33.6149322], [72.8906973, 33.6066742], [72.8922887, 33.6047626], [72.8963867, 33.5998397], [72.9006846, 33.5947596], [72.9035911, 33.5917536], [72.9055547, 33.5892295], [72.9075314, 33.5862613], [72.9123039, 33.5811424], [72.9152942, 33.5800147], [72.9174382, 33.5798429], [72.917905, 33.5797705], [72.9176444, 33.5783054], [72.9175739, 33.578224], [72.9178832, 33.5782014], [72.9179158, 33.5784185], [72.9185074, 33.5782919], [72.9187463, 33.5783235], [72.9190394, 33.5783009], [72.9192836, 33.5783416], [72.9195387, 33.5782919], [72.9202063, 33.5782195], [72.9205157, 33.578111], [72.9209825, 33.5779708], [72.9217261, 33.5776497], [72.922182, 33.5775276], [72.9224914, 33.5774598], [72.9226108, 33.5775005], [72.922562, 33.5780567], [72.9224751, 33.5784592], [72.9232079, 33.5785994], [72.9232784, 33.5782557], [72.9234033, 33.5779934], [72.9235932, 33.5777583], [72.9241034, 33.577297], [72.9244725, 33.5769714], [72.9251022, 33.5765689], [72.9257426, 33.5761891], [72.9261823, 33.5763338], [72.9263288, 33.57637], [72.9264645, 33.5763338], [72.9265894, 33.5763157], [72.9268173, 33.5764061], [72.9269584, 33.5768041], [72.926915, 33.5768945], [72.9267033, 33.5776135], [72.9267033, 33.5777447], [72.9272353, 33.5781155], [72.9274687, 33.578432], [72.9275664, 33.5789566], [72.9275392, 33.5790561], [72.927295, 33.5796258], [72.9271321, 33.5800193], [72.9269639, 33.5803267], [72.9269747, 33.5807337], [72.9269802, 33.5809462], [72.9270344, 33.5811181], [72.9272244, 33.5813939], [72.9273167, 33.5815522], [72.9273221, 33.5817421], [72.927257, 33.5820179], [72.9272353, 33.5821898], [72.927333, 33.582339], [72.9275935, 33.582556], [72.9279517, 33.5828364], [72.9283208, 33.583076], [72.9288647, 33.5832855], [72.9295049, 33.5836709], [72.9306232, 33.5820688], [72.9309299, 33.5822327], [72.9352452, 33.5845125], [72.9383921, 33.5861714], [72.9431384, 33.5887216], [72.9467341, 33.5906511], [72.9515901, 33.5932487], [72.9539649, 33.5945438], [72.9543597, 33.5947521], [72.9548013, 33.594985], [72.955914, 33.5955866], [72.9596184, 33.5975895], [72.9644466, 33.5999018], [72.9787677, 33.6074858], [72.9815156, 33.608729], [72.978972, 33.611898], [72.9786591, 33.6122968], [72.9786559, 33.6123027], [72.9771752, 33.6119488], [72.9771365, 33.6119381], [72.9757335, 33.6148935], [72.9751261, 33.6161938], [72.9750039, 33.6161637], [72.9747743, 33.6171058], [72.9747627, 33.6171533], [72.9743279, 33.6188965], [72.9741763, 33.6196856], [72.9740767, 33.6208526], [72.9740724, 33.6215696], [72.9740716, 33.6216576], [72.9740936, 33.6217344], [72.9741658, 33.6218484], [72.9750268, 33.6224158], [72.9755085, 33.6227393], [72.9742558, 33.6233286], [72.9747874, 33.6244243], [72.9750998, 33.6243277], [72.9752404, 33.6247281], [72.9747282, 33.6248389], [72.9742693, 33.6248785], [72.9738799, 33.624864], [72.9739981, 33.6250481], [72.9734713, 33.6253312], [72.9743845, 33.6260539], [72.9747528, 33.6268529], [72.9759376, 33.6266713], [72.9772284, 33.6267149], [72.9786857, 33.6270306], [72.9816881, 33.628126], [72.9830814, 33.628536], [72.9844401, 33.6286072], [72.985935, 33.6285492], [72.9867928, 33.6284922], [72.9876123, 33.6283995], [72.9879122, 33.6283969], [72.9885055, 33.6285139], [72.9891242, 33.6285864], [72.9895779, 33.6286827], [72.9903248, 33.6289334], [72.9910178, 33.6292353], [72.9915762, 33.6296078], [72.9933965, 33.6272509], [72.994324, 33.6260646], [72.995546, 33.6245718], [72.9961649, 33.6237908], [72.9965064, 33.6232901], [72.9967188, 33.622788], [72.9972111, 33.6222565], [72.9983943, 33.6205221], [72.9996744, 33.6188675], [72.9940304, 33.6151948], [72.9959954, 33.6161881], [72.9998996, 33.6182307], [73.0021914, 33.6194351], [73.0046826, 33.6207603], [73.0094677, 33.6232857], [73.0140006, 33.625648], [73.0149438, 33.6261517], [73.0179824, 33.6277444], [73.0217465, 33.6297278], [73.0255087, 33.6316745], [73.0265808, 33.6322364], [73.029765, 33.6339197], [73.0315304, 33.6348453], [73.0385029, 33.6384935], [73.0455961, 33.6422271], [73.0504213, 33.6448792], [73.0509947, 33.6451983], [73.0521504, 33.6458251], [73.05448, 33.6471023], [73.0553905, 33.6475405], [73.0594547, 33.6494952], [73.06314, 33.6514814], [73.0652763, 33.6526401], [73.0666566, 33.653345], [73.0697973, 33.6549918], [73.0718444, 33.6560695], [73.0740162, 33.657203], [73.0744855, 33.6574436], [73.0800008, 33.660362], [73.0806047, 33.6607347], [73.0823184, 33.6618271], [73.0837508, 33.6626692], [73.0840591, 33.6628226], [73.0848461, 33.6632796], [73.0851731, 33.6636897], [73.0855354, 33.6644781], [73.0876139, 33.6615659], [73.0885056, 33.6602964], [73.0885819, 33.6601924], [73.0905892, 33.6577415], [73.0908888, 33.657364], [73.0947677, 33.6525444], [73.0994395, 33.645886], [73.1038989, 33.6399225], [73.1066594, 33.6359623], [73.1107649, 33.6306228], [73.1148987, 33.6252594], [73.117362, 33.6216404], [73.1196338, 33.6187345], [73.1289586, 33.6060735], [73.1377482, 33.5937876], [73.1370864, 33.5934131], [73.1366566, 33.593008], [73.136157, 33.5923739], [73.1365034, 33.5922268], [73.137158, 33.5918855], [73.1375128, 33.5916691], [73.1378609, 33.5914027], [73.1382523, 33.5910725], [73.1386271, 33.5906534], [73.1392267, 33.5899555], [73.1398364, 33.5888788], [73.1395765, 33.5887609], [73.1394233, 33.5881712], [73.1393617, 33.587859], [73.1394001, 33.5871917], [73.1395337, 33.5865582], [73.1395851, 33.5862757], [73.1395234, 33.586036], [73.1392459, 33.5856764], [73.1390815, 33.585441], [73.1383878, 33.5852312], [73.1369491, 33.5847047], [73.1355412, 33.5840156], [73.1337428, 33.5830567], [73.1323658, 33.5823247], [73.1322887, 33.5821963], [73.1320318, 33.5813659], [73.131929, 33.5810063], [73.1319393, 33.5804669], [73.1319907, 33.5796878], [73.1317389, 33.5790799], [73.1314255, 33.5787846], [73.1310915, 33.578639], [73.1306702, 33.5786476], [73.1278338, 33.5790114], [73.1275358, 33.5789558], [73.1267959, 33.5787503], [73.1259892, 33.5783179], [73.1253726, 33.5779626], [73.1249256, 33.5776116], [73.1245608, 33.5774404], [73.1240264, 33.5773505], [73.1219711, 33.5775046], [73.1210565, 33.5774318], [73.1201778, 33.5773248], [73.1187853, 33.5772306], [73.1202703, 33.5755525], [73.1212106, 33.5738187], [73.1228625, 33.5697164], [73.1215775, 33.5689278], [73.1195377, 33.5674696], [73.1198116, 33.5669897], [73.1209989, 33.565855], [73.1216533, 33.565224], [73.1216845, 33.5651617], [73.1222579, 33.5637361], [73.1226381, 33.5637231], [73.1231024, 33.5627831], [73.1234296, 33.5619365], [73.1238161, 33.5609056], [73.1238659, 33.5606563], [73.1229466, 33.5605187], [73.1224106, 33.5603655], [73.1222143, 33.5608666], [73.1212077, 33.5601837], [73.1197524, 33.5617288], [73.1189577, 33.5615418], [73.118537, 33.5620456], [73.1173373, 33.5617625], [73.1172445, 33.5617245], [73.1186212, 33.5602477], [73.1200032, 33.5587422], [73.1183654, 33.5576807], [73.118608, 33.5574258], [73.1178086, 33.5568714], [73.1166799, 33.5580259], [73.1156324, 33.5591992], [73.1150511, 33.559789], [73.1147566, 33.5601178], [73.1142074, 33.560522], [73.1126729, 33.5616811], [73.1125483, 33.5610882], [73.1123011, 33.5594504], [73.1120598, 33.5581844], [73.1118185, 33.5572385], [73.1123637, 33.5560543], [73.1125067, 33.5554361], [73.1121224, 33.5549446], [73.1117559, 33.5546169], [73.111184, 33.5542668], [73.1106656, 33.5540881], [73.1098612, 33.5541923], [73.1089496, 33.5545498], [73.1081632, 33.5545945], [73.1069924, 33.5543636], [73.1058186, 33.5540546], [73.1047801, 33.553619], [73.1037829, 33.5527479], [73.1030608, 33.5522378], [73.1003774, 33.5511703], [73.1010371, 33.5500065], [73.1016675, 33.5490409], [73.102349, 33.547951], [73.1033288, 33.5466304], [73.1043127, 33.5455725], [73.1055311, 33.5441453], [73.1042953, 33.5438146], [73.1037294, 33.5433701], [73.1034452, 33.542642], [73.1038852, 33.5419901], [73.1044034, 33.5415744], [73.1050879, 33.5405883], [73.1052541, 33.5400504], [73.1052736, 33.5391703], [73.1050194, 33.5384368], [73.1042665, 33.5374669], [73.1040587, 33.5371042], [73.1038093, 33.5364748], [73.1041626, 33.535395], [73.1059222, 33.5338648], [73.1072038, 33.5328543], [73.1077164, 33.5321613], [73.1086378, 33.5300478], [73.1087902, 33.5296725], [73.1086447, 33.528916], [73.1084992, 33.528506], [73.108423, 33.5281191], [73.1085893, 33.5263115], [73.1085754, 33.5252547], [73.1084507, 33.5245444], [73.1078827, 33.5238456], [73.1069059, 33.523424], [73.1058945, 33.5231988], [73.102313, 33.5233432], [73.1010565, 33.5235416], [73.1003417, 33.5236671], [73.099583, 33.5240852], [73.0993259, 33.5247596], [73.1004859, 33.5295373], [73.1009123, 33.5304938], [73.1010565, 33.5311054], [73.1011004, 33.5316385], [73.1008308, 33.5325741], [73.0990688, 33.5339279], [73.0985045, 33.534137], [73.0977332, 33.5343199], [73.097125, 33.5342729], [73.0966359, 33.534069], [73.0958207, 33.5334836], [73.0954194, 33.5329139], [73.0921148, 33.5307708], [73.0905284, 33.530337], [73.0889294, 33.5301122], [73.0877631, 33.5297307], [73.0864652, 33.5289884], [73.0856249, 33.5281991], [73.0854054, 33.52776], [73.0850355, 33.526955], [73.0855622, 33.5239702], [73.0851798, 33.5193129], [73.0844488, 33.517664], [73.0835388, 33.5164093], [73.0822847, 33.5144855], [73.0811525, 33.5136789], [73.0796978, 33.5128365], [73.0783417, 33.5123107], [73.0769778, 33.5120364], [73.0774298, 33.5114149], [73.0773941, 33.5110645], [73.0784325, 33.5104808], [73.0798046, 33.5084497], [73.0816918, 33.5061819], [73.0829407, 33.5045058], [73.0834125, 33.5041091], [73.0842054, 33.5038149], [73.0835275, 33.503676], [73.0836662, 33.5030314], [73.0839041, 33.5030843], [73.084586, 33.5007138], [73.0872939, 33.5014279], [73.0878569, 33.5003832], [73.0883247, 33.4999468], [73.0890027, 33.4995633], [73.0900486, 33.4991218], [73.0908681, 33.4991175], [73.0914608, 33.4992292], [73.0928576, 33.4996418], [73.0935121, 33.5001619], [73.0939451, 33.5008066], [73.0942595, 33.5014512], [73.0943522, 33.5022033], [73.0946512, 33.5025128], [73.0960788, 33.5029512], [73.1002742, 33.5037634], [73.1011246, 33.5028566], [73.1016761, 33.5024354], [73.1021245, 33.5020581], [73.1019957, 33.5016398], [73.1027008, 33.5014589], [73.103677, 33.5012893], [73.10466, 33.5012441], [73.1054532, 33.5013628], [73.1058532, 33.5003848], [73.1089514, 33.5010801], [73.1125648, 33.5020751], [73.112897, 33.5013741], [73.1134055, 33.5009388], [73.1140699, 33.5006335], [73.1147796, 33.5003693], [73.1152057, 33.5001367], [73.1155621, 33.4996974], [73.1163523, 33.4986573], [73.1167706, 33.4979983], [73.1168559, 33.4972877], [73.1171658, 33.4967644], [73.1177158, 33.4960408], [73.1184595, 33.4949748], [73.1190096, 33.494626], [73.1216126, 33.4941931], [73.1221859, 33.4939863], [73.1222634, 33.4938054], [73.1223718, 33.4922161], [73.1225655, 33.4922355], [73.1230458, 33.4958082], [73.13352, 33.4929332], [73.1341708, 33.492733], [73.1728141, 33.4948904], [73.1777278, 33.4948467], [73.1855026, 33.4949622], [73.1855374, 33.4902125], [73.1860582, 33.4907044], [73.1861589, 33.4906228], [73.1863201, 33.490546], [73.1863115, 33.4904356], [73.1864496, 33.4903037], [73.1867459, 33.4902317], [73.1864438, 33.4899389], [73.186838, 33.4897133], [73.1871315, 33.4894446], [73.1875603, 33.4889958], [73.1881242, 33.489327], [73.1882106, 33.4890198], [73.1888234, 33.4889142], [73.1886681, 33.4887654], [73.1886019, 33.4885302], [73.1885904, 33.4883095], [73.1885645, 33.4881535], [73.1883659, 33.4878535], [73.1881645, 33.4875943], [73.187871, 33.4872584], [73.187802, 33.4871144], [73.1877732, 33.4869416], [73.1876293, 33.4867328], [73.1874308, 33.4865048], [73.1871373, 33.4861568], [73.1863805, 33.4854777], [73.186487, 33.4854033], [73.1867028, 33.4852737], [73.1871171, 33.4851129], [73.187356, 33.4850721], [73.1876754, 33.4850001], [73.1879257, 33.4849785], [73.1880897, 33.4849449], [73.1882249, 33.4849905], [73.1884033, 33.4849305], [73.1888522, 33.4848225], [73.1889213, 33.4848321], [73.188999, 33.4848729], [73.1890393, 33.4849521], [73.1891544, 33.4850793], [73.1893845, 33.4851297], [73.1894421, 33.4851033], [73.1895802, 33.4850889], [73.1897471, 33.4851369], [73.1900032, 33.4853241], [73.1905413, 33.4857537], [73.1913095, 33.4859601], [73.1914937, 33.4859361], [73.1923339, 33.4860585], [73.1931482, 33.4864904], [73.1935079, 33.4862216], [73.1939453, 33.4865504], [73.1941093, 33.4866536], [73.1943193, 33.486488], [73.1948056, 33.4869464], [73.1951078, 33.4871192], [73.1957638, 33.487172], [73.1969637, 33.4872416], [73.1970846, 33.4892382], [73.197191, 33.4910332], [73.1972025, 33.4913379], [73.1972083, 33.4917171], [73.1972054, 33.4922978], [73.1971881, 33.4926985], [73.1971306, 33.4933488], [73.1970673, 33.4938], [73.1969896, 33.4942511], [73.1968112, 33.4951509], [73.1965839, 33.4960748], [73.1965494, 33.4962452], [73.1978413, 33.4959092], [73.1998526, 33.4951701], [73.2019186, 33.4943543], [73.2043645, 33.4933752], [73.2055212, 33.4929121], [73.2063729, 33.4941095], [73.2072879, 33.4954053], [73.2078864, 33.4962452], [73.2081137, 33.4965475], [73.208413, 33.4968954], [73.2087036, 33.497205], [73.2090316, 33.4975529], [73.2092561, 33.4977665], [73.2093942, 33.4978768], [73.2095323, 33.497956], [73.209751, 33.4980352], [73.2110516, 33.4983735], [73.2118429, 33.4985775], [73.2121428, 33.4986629], [73.212382, 33.4987427], [73.2127292, 33.4989155], [73.2129223, 33.499016], [73.2131224, 33.4991608], [73.2135051, 33.4995389], [73.2139249, 33.5000072], [73.2148957, 33.501121], [73.2156358, 33.5019921], [73.2203239, 33.5099177], [73.2238467, 33.5161356], [73.2241157, 33.5161881], [73.2244142, 33.5162512], [73.2248094, 33.5163844], [73.2251779, 33.5166173], [73.2259111, 33.5172211], [73.2273762, 33.518556], [73.2284387, 33.5194515], [73.2329257, 33.5160768], [73.2358464, 33.5189939], [73.2361832, 33.5159008], [73.2384705, 33.515905], [73.2384805, 33.5160768], [73.2469914, 33.5159595], [73.247112, 33.520226], [73.2497411, 33.5201506], [73.2505706, 33.5230381], [73.2516816, 33.5246767], [73.2527926, 33.5263153], [73.2556731, 33.5306149], [73.2597299, 33.5367664], [73.2596997, 33.5368669], [73.2596394, 33.5370848], [73.259564, 33.5372273], [73.2595637, 33.537265], [73.2595453, 33.5373878], [73.2595422, 33.5374364], [73.2595207, 33.5375542], [73.2594163, 33.5377333], [73.2591953, 33.5378945], [73.2591093, 33.5379815], [73.2590663, 33.5380813], [73.2590694, 33.5382067], [73.2590848, 33.5383219], [73.2590694, 33.5385291], [73.2591738, 33.5386417], [73.2591155, 33.5389283], [73.2590663, 33.5393301], [73.2588606, 33.5397882], [73.2584984, 33.5406735], [73.2581576, 33.541431], [73.2590049, 33.541843], [73.2602883, 33.5425441], [73.2605461, 33.5427795], [73.2605339, 33.5429075], [73.260451, 33.5431224], [73.2603681, 33.5433399], [73.2603619, 33.5435804], [73.2616729, 33.5441715], [73.262029, 33.5444095], [73.2624527, 33.5447959], [73.26299, 33.5451874], [73.263343, 33.5454535], [73.2641443, 33.5461137], [73.2648597, 33.5466433], [73.2653171, 33.5470246], [73.2660662, 33.5476131], [73.2664838, 33.5479304], [73.2665912, 33.5478459], [73.2668798, 33.5481223], [73.2674969, 33.5484703], [73.2676658, 33.5486161], [73.2677333, 33.5486801], [73.2678254, 33.5489845], [73.2679237, 33.5492686], [73.2680526, 33.5494144], [73.2685438, 33.5497905], [73.2690135, 33.5502664], [73.2691271, 33.5504072], [73.2693052, 33.5508345], [73.2696214, 33.5512592], [73.2705394, 33.5523159], [73.2709754, 33.5527713], [73.2712517, 33.5530988], [73.2715341, 33.5535159], [73.2719302, 33.5538203], [73.2720253, 33.553915], [73.2720775, 33.5539738], [73.2721052, 33.5540455], [73.2719946, 33.5541836], [73.2717398, 33.5543423], [73.2716815, 33.5544037], [73.2716293, 33.5547184], [73.2716968, 33.5550893], [73.2716999, 33.5551866], [73.2716416, 33.5552991], [73.2714144, 33.5556318], [73.2713745, 33.5557469], [73.2714113, 33.5558006], [73.2721174, 33.5560411], [73.2722587, 33.556059], [73.2725718, 33.5560897], [73.2726486, 33.5561204], [73.2727069, 33.5561946], [73.2727407, 33.5563481], [73.2727038, 33.5566321], [73.2727345, 33.5567728], [73.2729126, 33.5569877], [73.2732073, 33.5571822], [73.2733271, 33.5572973], [73.2734315, 33.5574278], [73.273585, 33.5577399], [73.2737262, 33.5581262], [73.273892, 33.5584793], [73.2741284, 33.5587428], [73.2741652, 33.559037], [73.2753257, 33.5605951], [73.2788594, 33.5661849], [73.2790529, 33.566346], [73.2791695, 33.5664944], [73.2793537, 33.567423], [73.2793414, 33.5675381], [73.2795625, 33.567707], [73.2796914, 33.5678067], [73.2798449, 33.5679935], [73.2803116, 33.5692648], [73.280373, 33.5693365], [73.2805357, 33.5694311], [73.2800293, 33.5695164], [73.2794497, 33.569614], [73.279098, 33.5714315], [73.2796507, 33.5719721], [73.2804378, 33.5726245], [73.2814342, 33.5735175], [73.2821418, 33.5740302], [73.2830168, 33.5745814], [73.2846119, 33.575579], [73.2853739, 33.5761196], [73.2858009, 33.5764859], [73.2864959, 33.5772219], [73.2869564, 33.577773], [73.287664, 33.5782265], [73.2890079, 33.5788369], [73.2895606, 33.5790427], [73.2902514, 33.5794787], [73.2913734, 33.5803576], [73.2928555, 33.5815645], [73.2939189, 33.5825062], [73.2941617, 33.5826876], [73.2960332, 33.5837758], [73.2967356, 33.5841742], [73.2966145, 33.5844082], [73.2962222, 33.5848318], [73.2957524, 33.5851747], [73.2955103, 33.5853684], [73.2954086, 33.5855056], [73.2953505, 33.5857799], [73.2951519, 33.5862398], [73.2950405, 33.586373], [73.2949534, 33.5864294], [73.2948371, 33.5863931], [73.2944981, 33.5861591], [73.2943044, 33.5860744], [73.2941252, 33.5860865], [73.2939267, 33.5861793], [73.2935296, 33.5868409], [73.2944332, 33.5875538], [73.2934538, 33.5885262], [73.2933435, 33.5885166], [73.2907827, 33.5882937], [73.2901496, 33.5898303], [73.2901104, 33.5949668], [73.2916066, 33.5987564], [73.2933592, 33.6019856], [73.2950735, 33.6030972], [73.2978828, 33.6051325], [73.3011543, 33.608098], [73.301009, 33.6099336], [73.3000888, 33.6112178], [73.2994463, 33.6130304], [73.3000083, 33.6152433], [73.2998045, 33.6160873], [73.2985919, 33.6175613], [73.2989298, 33.622022], [73.2992026, 33.6246284], [73.2987823, 33.6295616], [73.2997163, 33.6328508], [73.3002486, 33.6355164], [73.2960363, 33.6366235], [73.2955973, 33.6378232], [73.2969543, 33.640033], [73.2970077, 33.64012], [73.2976801, 33.6437986], [73.2996696, 33.645106], [73.302565, 33.647599], [73.3006036, 33.6511623], [73.3010799, 33.6541973], [73.3036671, 33.655722], [73.3055911, 33.6585019], [73.3060114, 33.6603934], [73.3077767, 33.6619004], [73.3116808, 33.6653885], [73.3140777, 33.6673674], [73.3165256, 33.6715116], [73.3219508, 33.6734844], [73.3245562, 33.6741136], [73.3243782, 33.6751604], [73.3205771, 33.6780052], [73.3204146, 33.6791598], [73.3234447, 33.6808262], [73.3235995, 33.6819928], [73.3231678, 33.6840507], [73.3197333, 33.6870973], [73.3208699, 33.6913523], [73.322264, 33.6934648], [73.3244962, 33.6950115], [73.3269784, 33.698572], [73.3292003, 33.6986419], [73.3295505, 33.7016136], [73.3305914, 33.7022826], [73.3294532, 33.7039121], [73.3298963, 33.7042808], [73.3306954, 33.7049457], [73.3352764, 33.706028], [73.3387837, 33.7078272], [73.3402843, 33.709437], [73.341922, 33.7123725], [73.3423647, 33.7138334], [73.3439214, 33.7143609], [73.3447088, 33.7154972], [73.3441284, 33.7180672], [73.3423819, 33.7212594], [73.3490577, 33.7264863], [73.3545252, 33.730465], [73.3645349, 33.7342564], [73.3691567, 33.7349247], [73.369586, 33.736179], [73.3676541, 33.7400111], [73.3683143, 33.7424139], [73.3686607, 33.7447647], [73.3728993, 33.7470353], [73.3731444, 33.747258], [73.3742381, 33.7482517], [73.3742245, 33.7499687], [73.3731769, 33.7511787], [73.3740679, 33.7529871], [73.374227, 33.7534249], [73.3748275, 33.7550767], [73.3748776, 33.7552146], [73.3731073, 33.7569167], [73.3729881, 33.7569398], [73.3706703, 33.7573884], [73.370473, 33.7573659], [73.3679296, 33.7570756], [73.3656129, 33.7582167], [73.367243, 33.7616311], [73.366011, 33.7629635], [73.3654125, 33.7631937], [73.3651631, 33.763304], [73.3648986, 33.7631824], [73.3647474, 33.7631209], [73.3638888, 33.7627715], [73.3626255, 33.7627534], [73.3617011, 33.7629742], [73.3622471, 33.7641255], [73.3621461, 33.7652555], [73.3620896, 33.7652714], [73.3592823, 33.7660638], [73.3568413, 33.7674669], [73.3547741, 33.7682808], [73.3534025, 33.7686178], [73.3533842, 33.7687053], [73.3529858, 33.7706104], [73.3529043, 33.7706728], [73.3513758, 33.771842], [73.3512731, 33.7718512], [73.3494545, 33.7720146], [73.3479958, 33.7719741], [73.3472523, 33.7718597], [73.3463709, 33.7714612], [73.3459161, 33.7717209], [73.3456745, 33.7727216], [73.3470826, 33.7742575], [73.3459038, 33.7758257], [73.3456579, 33.7764021], [73.3452347, 33.7773938], [73.3449903, 33.7785211], [73.3434746, 33.7792399], [73.3427375, 33.7805], [73.3405098, 33.7812283], [73.3404445, 33.7812968], [73.336633, 33.785296], [73.3363059, 33.7856391], [73.3352712, 33.7867248], [73.333863, 33.7882022], [73.3244149, 33.7896704], [73.3209526, 33.7880939], [73.3208829, 33.7881266], [73.3185215, 33.7892353], [73.3165435, 33.790164], [73.3152048, 33.7907925], [73.3150881, 33.7909275], [73.3113403, 33.7952618], [73.3095279, 33.7966241], [73.3071595, 33.7970559], [73.300602, 33.7983409], [73.2995625, 33.7987847], [73.298951, 33.7990458], [73.2958037, 33.8003896], [73.2877794, 33.8028066], [73.2839278, 33.8000046], [73.2777373, 33.7974777], [73.2682117, 33.7954488], [73.2677415, 33.7953487], [73.2616308, 33.7940471], [73.2595144, 33.7935963], [73.2586182, 33.7934054], [73.2528917, 33.7921856], [73.2449121, 33.7904859], [73.2402739, 33.791573], [73.2396181, 33.7917267], [73.2216576, 33.7913515], [73.2215903, 33.7913501], [73.2091519, 33.7881918], [73.2086714, 33.7880698], [73.2010816, 33.7861426], [73.1806708, 33.7879371], [73.1802852, 33.787971], [73.1791682, 33.7880692], [73.1766327, 33.7882921], [73.1755783, 33.7883848], [73.1749439, 33.7884406], [73.1721239, 33.7886885], [73.1452069, 33.8032755], [73.1242934, 33.7979838], [73.1152364, 33.795692], [73.1119636, 33.7948639], [73.1084827, 33.7939831], [73.1083583, 33.7939516], [73.0621512, 33.7822582], [73.0563432, 33.7807883], [73.056267, 33.780769], [73.011604, 33.76252], [72.960533, 33.736019], [72.933067, 33.733578], [72.931862, 33.747837], [72.9199795, 33.7498534], [72.9070765, 33.753542], [72.9007147, 33.7494991], [72.8968523, 33.7393466], [72.8938697, 33.7320126], [72.8880761, 33.7271407], [72.8814243, 33.7255881], [72.8738068, 33.7241604], [72.8690003, 33.7229825], [72.8588723, 33.7231253], [72.8544091, 33.720698], [72.8451176, 33.714104], [72.8438638, 33.7126626], [72.8175952, 33.701649]]]}}]}